{
  "type": "FeatureCollection",
  "features": [
    {
      "type": "Feature",
      "properties": {
        "norad_id": 28054,
        "name": "DMSP 5D-3 F16 (USA 172)",
        "group": "weather",
        "lat": -13.624185022890007,
        "lon": 15.04223372860915,
        "alt_km": 845.994252510276,
        "timestamp": "2025-12-21T07:34:34.187320+00:00",
        "meta_object_name": "DMSP 5D-3 F16 (USA 172)",
        "meta_object_id": "2003-048A",
        "meta_epoch": "2025-12-20T21:46:17.249376",
        "meta_mean_motion": 14.1442689,
        "meta_eccentricity": 0.00062874,
        "meta_inclination": 99.0038,
        "meta_ra_of_asc_node": 12.4282,
        "meta_arg_of_pericenter": 294.8489,
        "meta_mean_anomaly": 132.3627,
        "meta_ephemeris_type": 0,
        "meta_classification_type": "U",
        "meta_norad_cat_id": 28054,
        "meta_element_set_no": 999,
        "meta_rev_at_epoch": 14428,
        "meta_bstar": 6.6040792e-05,
        "meta_mean_motion_dot": 8.1e-07,
        "meta_mean_motion_ddot": 0,
        "tle_line1": "1 28054U 03048A   25354.90714409  .00000081  00000+0  66041-4 0  9996",
        "tle_line2": "2 28054  99.0038  12.4282 0006287 294.8489 132.3627 14.14426890144288"
      },
      "geometry": {
        "type": "Point",
        "coordinates": [
          15.04223372860915,
          -13.624185022890007
        ]
      }
    },
    {
      "type": "Feature",
      "properties": {
        "norad_id": 28912,
        "name": "METEOSAT-9 (MSG-2)",
        "group": "weather",
        "lat": -1.7495698615581616,
        "lon": -113.04199375179103,
        "alt_km": 35794.57890837704,
        "timestamp": "2025-12-21T07:34:34.187371+00:00",
        "meta_object_name": "METEOSAT-9 (MSG-2)",
        "meta_object_id": "2005-049B",
        "meta_epoch": "2025-12-20T18:34:58.766592",
        "meta_mean_motion": 1.00265537,
        "meta_eccentricity": 0.01042854,
        "meta_inclination": 8.9429,
        "meta_ra_of_asc_node": 55.8777,
        "meta_arg_of_pericenter": 282.8799,
        "meta_mean_anomaly": 74.1046,
        "meta_ephemeris_type": 0,
        "meta_classification_type": "U",
        "meta_norad_cat_id": 28912,
        "meta_element_set_no": 999,
        "meta_rev_at_epoch": 520,
        "meta_bstar": 0,
        "meta_mean_motion_dot": 1.08e-06,
        "meta_mean_motion_ddot": 0,
        "tle_line1": "1 28912U 05049B   25354.77429128  .00000108  00000+0  00000+0 0  9996",
        "tle_line2": "2 28912   8.9429  55.8777 0104285 282.8799  74.1046  1.00265537  5208"
      },
      "geometry": {
        "type": "Point",
        "coordinates": [
          -113.04199375179103,
          -1.7495698615581616
        ]
      }
    },
    {
      "type": "Feature",
      "properties": {
        "norad_id": 29522,
        "name": "DMSP 5D-3 F17 (USA 191)",
        "group": "weather",
        "lat": -57.16801574687731,
        "lon": 14.317278079771146,
        "alt_km": 851.1643889744673,
        "timestamp": "2025-12-21T07:34:34.187386+00:00",
        "meta_object_name": "DMSP 5D-3 F17 (USA 191)",
        "meta_object_id": "2006-050A",
        "meta_epoch": "2025-12-20T23:21:55.642752",
        "meta_mean_motion": 14.14923022,
        "meta_eccentricity": 0.0009748,
        "meta_inclination": 98.739,
        "meta_ra_of_asc_node": 0.1912,
        "meta_arg_of_pericenter": 200.0826,
        "meta_mean_anomaly": 159.9966,
        "meta_ephemeris_type": 0,
        "meta_classification_type": "U",
        "meta_norad_cat_id": 29522,
        "meta_element_set_no": 999,
        "meta_rev_at_epoch": 98721,
        "meta_bstar": 8.626694e-05,
        "meta_mean_motion_dot": 1.23e-06,
        "meta_mean_motion_ddot": 0,
        "tle_line1": "1 29522U 06050A   25354.97356068  .00000123  00000+0  86267-4 0  9992",
        "tle_line2": "2 29522  98.7390   0.1912 0009748 200.0826 159.9966 14.14923022987217"
      },
      "geometry": {
        "type": "Point",
        "coordinates": [
          14.317278079771146,
          -57.16801574687731
        ]
      }
    },
    {
      "type": "Feature",
      "properties": {
        "norad_id": 32958,
        "name": "FENGYUN 3A",
        "group": "weather",
        "lat": 22.33642395131409,
        "lon": 118.25683187855412,
        "alt_km": 829.8373630850556,
        "timestamp": "2025-12-21T07:34:34.187398+00:00",
        "meta_object_name": "FENGYUN 3A",
        "meta_object_id": "2008-026A",
        "meta_epoch": "2025-12-20T20:41:12.694272",
        "meta_mean_motion": 14.195169,
        "meta_eccentricity": 0.00076612,
        "meta_inclination": 98.6708,
        "meta_ra_of_asc_node": 294.218,
        "meta_arg_of_pericenter": 284.299,
        "meta_mean_anomaly": 75.7335,
        "meta_ephemeris_type": 0,
        "meta_classification_type": "U",
        "meta_norad_cat_id": 32958,
        "meta_element_set_no": 999,
        "meta_rev_at_epoch": 91010,
        "meta_bstar": 5.2159354e-05,
        "meta_mean_motion_dot": 6.7e-07,
        "meta_mean_motion_ddot": 0,
        "tle_line1": "1 32958U 08026A   25354.86195248  .00000067  00000+0  52159-4 0  9993",
        "tle_line2": "2 32958  98.6708 294.2180 0007661 284.2990  75.7335 14.19516900910104"
      },
      "geometry": {
        "type": "Point",
        "coordinates": [
          118.25683187855412,
          22.33642395131409
        ]
      }
    },
    {
      "type": "Feature",
      "properties": {
        "norad_id": 35491,
        "name": "GOES 14",
        "group": "weather",
        "lat": 0.09729370950956336,
        "lon": 88.60639570430011,
        "alt_km": 35837.34265527637,
        "timestamp": "2025-12-21T07:34:34.187411+00:00",
        "meta_object_name": "GOES 14",
        "meta_object_id": "2009-033A",
        "meta_epoch": "2025-12-20T14:23:46.908672",
        "meta_mean_motion": 1.00096889,
        "meta_eccentricity": 5.175e-05,
        "meta_inclination": 1.223,
        "meta_ra_of_asc_node": 85.3269,
        "meta_arg_of_pericenter": 182.5261,
        "meta_mean_anomaly": 282.8096,
        "meta_ephemeris_type": 0,
        "meta_classification_type": "U",
        "meta_norad_cat_id": 35491,
        "meta_element_set_no": 999,
        "meta_rev_at_epoch": 480,
        "meta_bstar": 0,
        "meta_mean_motion_dot": 2.1e-07,
        "meta_mean_motion_ddot": 0,
        "tle_line1": "1 35491U 09033A   25354.59984848  .00000021  00000+0  00000+0 0  9992",
        "tle_line2": "2 35491   1.2230  85.3269 0000517 182.5261 282.8096  1.00096889  4801"
      },
      "geometry": {
        "type": "Point",
        "coordinates": [
          88.60639570430011,
          0.09729370950956336
        ]
      }
    },
    {
      "type": "Feature",
      "properties": {
        "norad_id": 35951,
        "name": "DMSP 5D-3 F18 (USA 210)",
        "group": "weather",
        "lat": 14.965032558477503,
        "lon": 154.07002097079064,
        "alt_km": 848.7058166308243,
        "timestamp": "2025-12-21T07:34:34.187423+00:00",
        "meta_object_name": "DMSP 5D-3 F18 (USA 210)",
        "meta_object_id": "2009-057A",
        "meta_epoch": "2025-12-20T22:18:51.487776",
        "meta_mean_motion": 14.14774234,
        "meta_eccentricity": 0.00118529,
        "meta_inclination": 98.8842,
        "meta_ra_of_asc_node": 331.2899,
        "meta_arg_of_pericenter": 41.1913,
        "meta_mean_anomaly": 319.0153,
        "meta_ephemeris_type": 0,
        "meta_classification_type": "U",
        "meta_norad_cat_id": 35951,
        "meta_element_set_no": 999,
        "meta_rev_at_epoch": 83438,
        "meta_bstar": 0.00013074712,
        "meta_mean_motion_dot": 2.08e-06,
        "meta_mean_motion_ddot": 0,
        "tle_line1": "1 35951U 09057A   25354.92976259  .00000208  00000+0  13075-3 0  9990",
        "tle_line2": "2 35951  98.8842 331.2899 0011852  41.1913 319.0153 14.14774234834380"
      },
      "geometry": {
        "type": "Point",
        "coordinates": [
          154.07002097079064,
          14.965032558477503
        ]
      }
    },
    {
      "type": "Feature",
      "properties": {
        "norad_id": 36411,
        "name": "EWS-G2 (GOES 15)",
        "group": "weather",
        "lat": -0.013113613241447825,
        "lon": -94.86436053593454,
        "alt_km": 35763.20018547584,
        "timestamp": "2025-12-21T07:34:34.187434+00:00",
        "meta_object_name": "EWS-G2 (GOES 15)",
        "meta_object_id": "2010-008A",
        "meta_epoch": "2025-12-20T22:04:53.664384",
        "meta_mean_motion": 1.00270839,
        "meta_eccentricity": 0.00054571,
        "meta_inclination": 0.8326,
        "meta_ra_of_asc_node": 86.0876,
        "meta_arg_of_pericenter": 177.7095,
        "meta_mean_anomaly": 218.5367,
        "meta_ephemeris_type": 0,
        "meta_classification_type": "U",
        "meta_norad_cat_id": 36411,
        "meta_element_set_no": 999,
        "meta_rev_at_epoch": 5785,
        "meta_bstar": 0,
        "meta_mean_motion_dot": 6.1e-07,
        "meta_mean_motion_ddot": 0,
        "tle_line1": "1 36411U 10008A   25354.92006556  .00000061  00000+0  00000+0 0  9991",
        "tle_line2": "2 36411   0.8326  86.0876 0005457 177.7095 218.5367  1.00270839 57855"
      },
      "geometry": {
        "type": "Point",
        "coordinates": [
          -94.86436053593454,
          -0.013113613241447825
        ]
      }
    }
  ]
}